19.12.19 00:00:00 | SARS10 ERZW 190000
                  |                   | METAR UDYZ 190000Z 00000KT 2300 BR NSC M04/M05 Q1032 R09/010070 NOSIG=
19.12.19 00:30:00 | SARS10 ERZW 190030
                  |                   | METAR UDYZ 190030Z 02001KT 2000 R09/P2000N BR NSC M04/M05 Q1032 R09/010070 NOSIG=
19.12.19 01:00:00 | SARS10 ERZW 190100
                  |                   | METAR UDYZ 190100Z 33001KT 2300 BR NSC M03/M05 Q1032 R09/010070 NOSIG=
19.12.19 01:30:00 | SARS10 ERZW 190130
                  |                   | METAR UDYZ 190130Z 00000KT 1600 R09/P2000N BR NSC M04/M05 Q1032 R09/010070 NOSIG=
19.12.19 02:00:13 | SARS10 ERZW 190200
                  |                   | METAR UDYZ 190200Z VRB01KT 2300 BR NSC M04/M06 Q1032 R09/010070 NOSIG=
19.12.19 02:30:00 | SARS10 ERZW 190230
                  |                   | METAR UDYZ 190230Z 03001KT 3500 BR NSC M03/M05 Q1032 R09/010070 NOSIG=
19.12.19 03:00:00 | SARS10 ERZW 190300
                  |                   | METAR UDYZ 190300Z 22002KT 3500 BR NSC M04/M06 Q1032 R09/010070 NOSIG=
19.12.19 03:13:14 | SARS10 ERZW 190313
                  |                   | SPECI UDYZ 190313Z 23003KT 2300 BR NSC M05/M06 Q1032 R09/010070 NOSIG=
19.12.19 03:30:00 | SARS10 ERZW 190330
                  |                   | METAR UDYZ 190330Z 27002KT 2300 BR NSC M05/M06 Q1032 R09/010070 NOSIG=
19.12.19 04:00:02 | SARS10 ERZW 190400
                  |                   | METAR UDYZ 190400Z VRB01KT 2300 BR NSC M06/M07 Q1032 R09/010070 NOSIG=
19.12.19 04:30:00 | SARS10 ERZW 190430
                  |                   | METAR UDYZ 190430Z 07001KT 2300 BR NSC M05/M06 Q1033 R09/010070 NOSIG=
19.12.19 05:00:00 | SARS10 ERZW 190500
                  |                   | METAR UDYZ 190500Z 00000KT 2300 BR NSC M04/M06 Q1033 R09/010070 NOSIG=
19.12.19 05:30:00 | SARS10 ERZW 190530
                  |                   | METAR UDYZ 190530Z 00000KT 2300 BR NSC M02/M03 Q1033 R09/010070 NOSIG=
19.12.19 06:00:00 | SARS10 ERZW 190600
                  |                   | METAR UDYZ 190600Z 00000KT 2300 BR NSC M00/M02 Q1033 R09/010070 NOSIG=
19.12.19 06:30:00 | SARS10 ERZW 190630
                  |                   | METAR UDYZ 190630Z 00000KT 3000 BR NSC 01/M02 Q1033 R09/010070 NOSIG=
19.12.19 07:00:00 | SARS10 ERZW 190700
                  |                   | METAR UDYZ 190700Z 00000KT 3500 BR NSC 02/M01 Q1033 R09/010070 NOSIG=
19.12.19 07:30:00 | SARS10 ERZW 190730
                  |                   | METAR UDYZ 190730Z 18001KT 3500 BR NSC 03/M01 Q1033 R09/010070 NOSIG=
19.12.19 08:00:00 | SARS10 ERZW 190800
                  |                   | METAR UDYZ 190800Z 18003KT 3500 BR NSC 04/M01 Q1033 R09/010070 NOSIG=
19.12.19 08:30:00 | SARS10 ERZW 190830
                  |                   | METAR UDYZ 190830Z VRB02KT 3500 BR NSC 05/M00 Q1033 R09/010070 NOSIG=
19.12.19 09:00:00 | SARS10 ERZW 190900
                  |                   | METAR UDYZ 190900Z VRB01KT 6000 NSC 06/M01 Q1032 R09/010070 NOSIG=
19.12.19 09:30:00 | SARS10 ERZW 190930
                  |                   | METAR UDYZ 190930Z VRB01KT 6000 NSC 07/M01 Q1032 R09/010070 NOSIG=
19.12.19 10:00:00 | SARS10 ERZW 191000
                  |                   | METAR UDYZ 191000Z VRB01KT 6000 NSC 07/M02 Q1031 R09/010070 NOSIG=
19.12.19 10:30:00 | SARS10 ERZW 191030
                  |                   | METAR UDYZ 191030Z VRB01KT 6000 NSC 08/M02 Q1031 R09/010070 NOSIG=
19.12.19 11:00:00 | SARS10 ERZW 191100
                  |                   | METAR UDYZ 191100Z VRB01KT 6000 NSC 08/M02 Q1030 R09/010070 NOSIG=
19.12.19 11:30:00 | SARS10 ERZW 191130
                  |                   | METAR UDYZ 191130Z 00000KT 6000 NSC 08/M03 Q1030 R09/010070 NOSIG=
19.12.19 12:00:00 | SARS10 ERZW 191200
                  |                   | METAR UDYZ 191200Z VRB01KT 6000 NSC 09/M03 Q1030 R09/010070 NOSIG=
19.12.19 12:30:00 | SARS10 ERZW 191230
                  |                   | METAR UDYZ 191230Z 15001KT 6000 NSC 09/M03 Q1030 R09/010070 NOSIG=
19.12.19 13:00:00 | SARS10 ERZW 191300
                  |                   | METAR UDYZ 191300Z 15001KT 6000 NSC 08/M03 Q1030 R09/010070 NOSIG=
19.12.19 13:30:00 | SARS10 ERZW 191330
                  |                   | METAR UDYZ 191330Z 00000KT 6000 NSC 07/M03 Q1030 R09/010070 NOSIG=
19.12.19 14:00:00 | SARS10 ERZW 191400
                  |                   | METAR UDYZ 191400Z 00000KT 6000 NSC 06/M03 Q1030 R09/010070 NOSIG=
19.12.19 14:30:00 | SARS10 ERZW 191430
                  |                   | METAR UDYZ 191430Z 00000KT 6000 NSC 04/M03 Q1030 R09/010070 NOSIG=
19.12.19 15:00:00 | SARS10 ERZW 191500
                  |                   | METAR UDYZ 191500Z 35002KT 6000 NSC 01/M03 Q1030 R09/010070 NOSIG=
19.12.19 15:30:00 | SARS10 ERZW 191530
                  |                   | METAR UDYZ 191530Z 01001KT 6000 NSC 01/M03 Q1030 R09/010070 NOSIG=
19.12.19 16:00:00 | SARS10 ERZW 191600
                  |                   | METAR UDYZ 191600Z 01001KT 6000 NSC 01/M02 Q1030 R09/010070 NOSIG=
19.12.19 16:30:00 | SARS10 ERZW 191630
                  |                   | METAR UDYZ 191630Z 00000KT 3500 BR NSC M00/M03 Q1030 R09/010070 NOSIG=
19.12.19 17:00:00 | SARS10 ERZW 191700
                  |                   | METAR UDYZ 191700Z 00000KT 3500 BR NSC M00/M03 Q1030 R09/010070 NOSIG=
19.12.19 17:30:00 | SARS10 ERZW 191730
                  |                   | METAR UDYZ 191730Z 00000KT 3500 BR NSC 00/M02 Q1030 R09/010070 NOSIG=
19.12.19 18:00:00 | SARS10 ERZW 191800
                  |                   | METAR UDYZ 191800Z 34002KT 3500 BR NSC M01/M03 Q1030 R09/010070 NOSIG=
19.12.19 18:30:00 | SARS10 ERZW 191830
                  |                   | METAR UDYZ 191830Z 35001KT 3500 BR NSC M00/M03 Q1030 R09/010070 NOSIG=
19.12.19 19:00:00 | SARS10 ERZW 191900
                  |                   | METAR UDYZ 191900Z 00000KT 3500 BR NSC M01/M03 Q1030 R09/010070 NOSIG=
19.12.19 19:30:00 | SARS10 ERZW 191930
                  |                   | METAR UDYZ 191930Z 36001KT 3500 BR NSC M01/M03 Q1030 R09/010070 NOSIG=
19.12.19 20:00:00 | SARS10 ERZW 192000
                  |                   | METAR UDYZ 192000Z 02001KT 3500 BR NSC M01/M02 Q1030 R09/010070 NOSIG=
19.12.19 20:30:00 | SARS10 ERZW 192030
                  |                   | METAR UDYZ 192030Z 35001KT 3500 BR NSC M00/M02 Q1029 R09/010070 NOSIG=
19.12.19 21:00:00 | SARS10 ERZW 192100
                  |                   | METAR UDYZ 192100Z 36002KT 3500 BR NSC 00/M02 Q1029 R09/010070 NOSIG=
19.12.19 21:30:00 | SARS10 ERZW 192130
                  |                   | METAR UDYZ 192130Z 00000KT 3500 BR NSC 00/M02 Q1029 R09/010070 NOSIG=
19.12.19 22:00:00 | SARS10 ERZW 192200
                  |                   | METAR UDYZ 192200Z 00000KT 3500 BR NSC M00/M02 Q1029 R09/010070 NOSIG=
19.12.19 22:30:00 | SARS10 ERZW 192230
                  |                   | METAR UDYZ 192230Z 25001KT 3500 BR NSC 00/M02 Q1029 R09/010070 NOSIG=
19.12.19 23:00:00 | SARS10 ERZW 192300
                  |                   | METAR UDYZ 192300Z VRB01KT 3500 BR NSC M01/M03 Q1028 R09/010070 NOSIG=
19.12.19 23:30:00 | SARS10 ERZW 192330
                  |                   | METAR UDYZ 192330Z 02002KT 3500 BR NSC M01/M03 Q1028 R09/010070 NOSIG=
